SPACEBEE-170            
1 56983U 23084BD  24293.09820328  .00472744  00000+0  34104-2 0  9991
2 56983  97.5485  60.9302 0009314 267.7193  92.3003 15.72123568 75530
